SENTINEL-6              
1 46984U 20086A   24056.48997728 -.00000033  00000+0  12240-3 0  9996
2 46984  66.0399  85.3435 0007852 270.6247  89.3868 12.80931093152392
